{
  "type": "FeatureCollection",
  "features": [
    {
      "type": "Feature",
      "properties": {
        "norad_id": 67075,
        "name": "STARLINK-36230",
        "group": "last-30-days",
        "lat": 25.125689532555352,
        "lon": -138.6859974861009,
        "alt_km": 338.9500468826809,
        "timestamp": "2025-12-26T06:43:28.236866+00:00",
        "meta_object_name": "STARLINK-36230",
        "meta_object_id": "2025-298A",
        "meta_epoch": "2025-12-25T22:00:01.999584",
        "meta_mean_motion": 15.78223887,
        "meta_eccentricity": 0.00037007,
        "meta_inclination": 69.9968,
        "meta_ra_of_asc_node": 212.5099,
        "meta_arg_of_pericenter": 277.6652,
        "meta_mean_anomaly": 205.5369,
        "meta_ephemeris_type": 0,
        "meta_classification_type": "U",
        "meta_norad_cat_id": 67075,
        "meta_element_set_no": 999,
        "meta_rev_at_epoch": 309,
        "meta_bstar": -0.011199782,
        "meta_mean_motion_dot": -0.01705356,
        "meta_mean_motion_ddot": 0,
        "tle_line1": "1 67075U 25298A   25359.91668981 -.01705356  00000+0 -11200-1 0  9996",
        "tle_line2": "2 67075  69.9968 212.5099 0003700 277.6652 205.5369 15.78223887  3090"
      },
      "geometry": {
        "type": "Point",
        "coordinates": [
          -138.6859974861009,
          25.125689532555352
        ]
      }
    },
    {
      "type": "Feature",
      "properties": {
        "norad_id": 67076,
        "name": "STARLINK-36240",
        "group": "last-30-days",
        "lat": 26.91159971035144,
        "lon": -137.86968964056754,
        "alt_km": 338.8566740032393,
        "timestamp": "2025-12-26T06:43:28.236876+00:00",
        "meta_object_name": "STARLINK-36240",
        "meta_object_id": "2025-298B",
        "meta_epoch": "2025-12-25T22:00:01.999584",
        "meta_mean_motion": 15.7822359,
        "meta_eccentricity": 0.00035373,
        "meta_inclination": 69.9968,
        "meta_ra_of_asc_node": 212.5074,
        "meta_arg_of_pericenter": 273.3746,
        "meta_mean_anomaly": 211.7592,
        "meta_ephemeris_type": 0,
        "meta_classification_type": "U",
        "meta_norad_cat_id": 67076,
        "meta_element_set_no": 999,
        "meta_rev_at_epoch": 309,
        "meta_bstar": -0.011180169,
        "meta_mean_motion_dot": -0.01702527,
        "meta_mean_motion_ddot": 0,
        "tle_line1": "1 67076U 25298B   25359.91668981 -.01702527  00000+0 -11180-1 0  9991",
        "tle_line2": "2 67076  69.9968 212.5074 0003537 273.3746 211.7592 15.78223590  3097"
      },
      "geometry": {
        "type": "Point",
        "coordinates": [
          -137.86968964056754,
          26.91159971035144
        ]
      }
    },
    {
      "type": "Feature",
      "properties": {
        "norad_id": 67077,
        "name": "STARLINK-36243",
        "group": "last-30-days",
        "lat": 28.931765075446194,
        "lon": -136.91120850328988,
        "alt_km": 338.4875531359412,
        "timestamp": "2025-12-26T06:43:28.236888+00:00",
        "meta_object_name": "STARLINK-36243",
        "meta_object_id": "2025-298C",
        "meta_epoch": "2025-12-25T22:00:01.999584",
        "meta_mean_motion": 15.78212605,
        "meta_eccentricity": 0.00036293,
        "meta_inclination": 69.9964,
        "meta_ra_of_asc_node": 212.5047,
        "meta_arg_of_pericenter": 278.0692,
        "meta_mean_anomaly": 209.268,
        "meta_ephemeris_type": 0,
        "meta_classification_type": "U",
        "meta_norad_cat_id": 67077,
        "meta_element_set_no": 999,
        "meta_rev_at_epoch": 309,
        "meta_bstar": -0.011210602,
        "meta_mean_motion_dot": -0.01705974,
        "meta_mean_motion_ddot": 0,
        "tle_line1": "1 67077U 25298C   25359.91668981 -.01705974  00000+0 -11211-1 0  9996",
        "tle_line2": "2 67077  69.9964 212.5047 0003629 278.0692 209.2680 15.78212605  3093"
      },
      "geometry": {
        "type": "Point",
        "coordinates": [
          -136.91120850328988,
          28.931765075446194
        ]
      }
    },
    {
      "type": "Feature",
      "properties": {
        "norad_id": 67078,
        "name": "STARLINK-36236",
        "group": "last-30-days",
        "lat": 30.606846947835823,
        "lon": -136.08518705848454,
        "alt_km": 338.25886476041524,
        "timestamp": "2025-12-26T06:43:28.236899+00:00",
        "meta_object_name": "STARLINK-36236",
        "meta_object_id": "2025-298D",
        "meta_epoch": "2025-12-25T22:00:01.999584",
        "meta_mean_motion": 15.78215823,
        "meta_eccentricity": 0.00036235,
        "meta_inclination": 69.9967,
        "meta_ra_of_asc_node": 212.5027,
        "meta_arg_of_pericenter": 278.2879,
        "meta_mean_anomaly": 210.8652,
        "meta_ephemeris_type": 0,
        "meta_classification_type": "U",
        "meta_norad_cat_id": 67078,
        "meta_element_set_no": 999,
        "meta_rev_at_epoch": 309,
        "meta_bstar": -0.011197095,
        "meta_mean_motion_dot": -0.01704366,
        "meta_mean_motion_ddot": 0,
        "tle_line1": "1 67078U 25298D   25359.91668981 -.01704366  00000+0 -11197-1 0  9994",
        "tle_line2": "2 67078  69.9967 212.5027 0003623 278.2879 210.8652 15.78215823  3090"
      },
      "geometry": {
        "type": "Point",
        "coordinates": [
          -136.08518705848454,
          30.606846947835823
        ]
      }
    },
    {
      "type": "Feature",
      "properties": {
        "norad_id": 67079,
        "name": "STARLINK-36159",
        "group": "last-30-days",
        "lat": 32.62273035622377,
        "lon": -135.04851056418877,
        "alt_km": 338.02536366955974,
        "timestamp": "2025-12-26T06:43:28.236909+00:00",
        "meta_object_name": "STARLINK-36159",
        "meta_object_id": "2025-298E",
        "meta_epoch": "2025-12-25T22:00:01.999584",
        "meta_mean_motion": 15.78202073,
        "meta_eccentricity": 0.00036592,
        "meta_inclination": 69.9969,
        "meta_ra_of_asc_node": 212.5001,
        "meta_arg_of_pericenter": 279.1815,
        "meta_mean_anomaly": 212.188,
        "meta_ephemeris_type": 0,
        "meta_classification_type": "U",
        "meta_norad_cat_id": 67079,
        "meta_element_set_no": 999,
        "meta_rev_at_epoch": 309,
        "meta_bstar": -0.011198916,
        "meta_mean_motion_dot": -0.01703708,
        "meta_mean_motion_ddot": 0,
        "tle_line1": "1 67079U 25298E   25359.91668981 -.01703708  00000+0 -11199-1 0  9996",
        "tle_line2": "2 67079  69.9969 212.5001 0003659 279.1815 212.1880 15.78202073  3095"
      },
      "geometry": {
        "type": "Point",
        "coordinates": [
          -135.04851056418877,
          32.62273035622377
        ]
      }
    },
    {
      "type": "Feature",
      "properties": {
        "norad_id": 67080,
        "name": "STARLINK-36158",
        "group": "last-30-days",
        "lat": 34.54015655270524,
        "lon": -134.0133869272358,
        "alt_km": 337.98255562954273,
        "timestamp": "2025-12-26T06:43:28.236919+00:00",
        "meta_object_name": "STARLINK-36158",
        "meta_object_id": "2025-298F",
        "meta_epoch": "2025-12-25T22:00:01.999584",
        "meta_mean_motion": 15.78199317,
        "meta_eccentricity": 0.00035344,
        "meta_inclination": 69.9966,
        "meta_ra_of_asc_node": 212.4975,
        "meta_arg_of_pericenter": 273.6036,
        "meta_mean_anomaly": 219.8781,
        "meta_ephemeris_type": 0,
        "meta_classification_type": "U",
        "meta_norad_cat_id": 67080,
        "meta_element_set_no": 999,
        "meta_rev_at_epoch": 303,
        "meta_bstar": -0.011251633,
        "meta_mean_motion_dot": -0.01710499,
        "meta_mean_motion_ddot": 0,
        "tle_line1": "1 67080U 25298F   25359.91668981 -.01710499  00000+0 -11252-1 0  9993",
        "tle_line2": "2 67080  69.9966 212.4975 0003534 273.6036 219.8781 15.78199317  3033"
      },
      "geometry": {
        "type": "Point",
        "coordinates": [
          -134.0133869272358,
          34.54015655270524
        ]
      }
    },
    {
      "type": "Feature",
      "properties": {
        "norad_id": 67081,
        "name": "STARLINK-35864",
        "group": "last-30-days",
        "lat": 36.31865191295461,
        "lon": -133.005225426758,
        "alt_km": 337.71184872288995,
        "timestamp": "2025-12-26T06:43:28.236929+00:00",
        "meta_object_name": "STARLINK-35864",
        "meta_object_id": "2025-298G",
        "meta_epoch": "2025-12-25T22:00:01.999584",
        "meta_mean_motion": 15.78194373,
        "meta_eccentricity": 0.0003659,
        "meta_inclination": 69.9968,
        "meta_ra_of_asc_node": 212.4952,
        "meta_arg_of_pericenter": 276.3938,
        "meta_mean_anomaly": 219.0473,
        "meta_ephemeris_type": 0,
        "meta_classification_type": "U",
        "meta_norad_cat_id": 67081,
        "meta_element_set_no": 999,
        "meta_rev_at_epoch": 309,
        "meta_bstar": -0.01122057,
        "meta_mean_motion_dot": -0.01706101,
        "meta_mean_motion_ddot": 0,
        "tle_line1": "1 67081U 25298G   25359.91668981 -.01706101  00000+0 -11221-1 0  9995",
        "tle_line2": "2 67081  69.9968 212.4952 0003659 276.3938 219.0473 15.78194373  3093"
      },
      "geometry": {
        "type": "Point",
        "coordinates": [
          -133.005225426758,
          36.31865191295461
        ]
      }
    }
  ]
}